{"type": "FeatureCollection", "features": [ {"type": "Feature", "properties": {"norad_id": 66856, "name": "STARLINK-36072", "group": "last-30-days", "lat": -33.01699113508842, "lon": 47.34830937953114, "alt_km": 339.57795615032956, "timestamp": "2025-12-17T17:50:17.974433+00:00", "meta": {"OBJECT_NAME": "STARLINK-36072", "OBJECT_ID": "2025-281J", "EPOCH": "2025-12-17T06:00:00.999648", "MEAN_MOTION": 15.78892136, "ECCENTRICITY": 0.00015064, "INCLINATION": 43.0006, "RA_OF_ASC_NODE": 94.5703, "ARG_OF_PERICENTER": 271.6685, "MEAN_ANOMALY": 109.5148, "EPHEMERIS_TYPE": 0, "CLASSIFICATION_TYPE": "U", "NORAD_CAT_ID": 66856, "ELEMENT_SET_NO": 999, "REV_AT_EPOCH": 212, "BSTAR": -0.008248738, "MEAN_MOTION_DOT": -0.01343842, "MEAN_MOTION_DDOT": 0}, "tle": {"line1": "1 66856U 25281J   25351.25001157 -.01343842  00000+0 -82487-2 0  9993", "line2": "2 66856  43.0006  94.5703 0001506 271.6685 109.5148 15.78892136  2124"}}, "geometry": {"type": "Point", "coordinates": [47.34830937953114, -33.01699113508842]}}, {"type": "Feature", "properties": {"norad_id": 66857, "name": "STARLINK-36083", "group": "last-30-days", "lat": -31.952466921071355, "lon": 49.54174460724515, "alt_km": 339.73695628462156, "timestamp": "2025-12-17T17:50:17.974443+00:00", "meta": {"OBJECT_NAME": "STARLINK-36083", "OBJECT_ID": "2025-281K", "EPOCH": "2025-12-17T06:00:00.999648", "MEAN_MOTION": 15.78829177, "ECCENTRICITY": 0.000143, "INCLINATION": 43.0003, "RA_OF_ASC_NODE": 94.5644, "ARG_OF_PERICENTER": 274.0306, "MEAN_ANOMALY": 109.4079, "EPHEMERIS_TYPE": 0, "CLASSIFICATION_TYPE": "U", "NORAD_CAT_ID": 66857, "ELEMENT_SET_NO": 999, "REV_AT_EPOCH": 212, "BSTAR": -0.0082803033, "MEAN_MOTION_DOT": -0.01344924, "MEAN_MOTION_DDOT": 0}, "tle": {"line1": "1 66857U 25281K   25351.25001157 -.01344924  00000+0 -82803-2 0  9998", "line2": "2 66857  43.0003  94.5644 0001430 274.0306 109.4079 15.78829177  2126"}}, "geometry": {"type": "Point", "coordinates": [49.54174460724515, -31.952466921071355]}}, {"type": "Feature", "properties": {"norad_id": 66858, "name": "STARLINK-35118", "group": "last-30-days", "lat": -30.836103919434887, "lon": 51.713310008031215, "alt_km": 339.814904145388, "timestamp": "2025-12-17T17:50:17.974453+00:00", "meta": {"OBJECT_NAME": "STARLINK-35118", "OBJECT_ID": "2025-281L", "EPOCH": "2025-12-17T06:00:00.999648", "MEAN_MOTION": 15.7876497, "ECCENTRICITY": 0.00015221, "INCLINATION": 43.0007, "RA_OF_ASC_NODE": 94.5585, "ARG_OF_PERICENTER": 277.2504, "MEAN_ANOMALY": 108.4843, "EPHEMERIS_TYPE": 0, "CLASSIFICATION_TYPE": "U", "NORAD_CAT_ID": 66858, "ELEMENT_SET_NO": 999, "REV_AT_EPOCH": 191, "BSTAR": -0.0083795763, "MEAN_MOTION_DOT": -0.01355806, "MEAN_MOTION_DDOT": 0}, "tle": {"line1": "1 66858U 25281L   25351.25001157 -.01355806  00000+0 -83796-2 0  9992", "line2": "2 66858  43.0007  94.5585 0001522 277.2504 108.4843 15.78764970  1915"}}, "geometry": {"type": "Point", "coordinates": [51.713310008031215, -30.836103919434887]}}, {"type": "Feature", "properties": {"norad_id": 66859, "name": "STARLINK-35646", "group": "last-30-days", "lat": -29.64880797635881, "lon": 53.898035604274256, "alt_km": 340.19718871057285, "timestamp": "2025-12-17T17:50:17.974465+00:00", "meta": {"OBJECT_NAME": "STARLINK-35646", "OBJECT_ID": "2025-281M", "EPOCH": "2025-12-17T08:00:04.999680", "MEAN_MOTION": 15.78440225, "ECCENTRICITY": 0.00012064, "INCLINATION": 43.0005, "RA_OF_ASC_NODE": 94.0454, "ARG_OF_PERICENTER": 280.0754, "MEAN_ANOMALY": 222.4717, "EPHEMERIS_TYPE": 0, "CLASSIFICATION_TYPE": "U", "NORAD_CAT_ID": 66859, "ELEMENT_SET_NO": 999, "REV_AT_EPOCH": 213, "BSTAR": -0.0087212478, "MEAN_MOTION_DOT": -0.01386327, "MEAN_MOTION_DDOT": 0}, "tle": {"line1": "1 66859U 25281M   25351.33339120 -.01386327  00000+0 -87212-2 0  9995", "line2": "2 66859  43.0005  94.0454 0001206 280.0754 222.4717 15.78440225  2138"}}, "geometry": {"type": "Point", "coordinates": [53.898035604274256, -29.64880797635881]}}, {"type": "Feature", "properties": {"norad_id": 66860, "name": "STARLINK-35987", "group": "last-30-days", "lat": -23.2917453584156, "lon": 64.00525762946131, "alt_km": 341.7775494616362, "timestamp": "2025-12-17T17:50:17.974476+00:00", "meta": {"OBJECT_NAME": "STARLINK-35987", "OBJECT_ID": "2025-281N", "EPOCH": "2025-12-17T08:00:04.999680", "MEAN_MOTION": 15.77945392, "ECCENTRICITY": 0.00012996, "INCLINATION": 43.0006, "RA_OF_ASC_NODE": 94.0155, "ARG_OF_PERICENTER": 271.4246, "MEAN_ANOMALY": 243.047, "EPHEMERIS_TYPE": 0, "CLASSIFICATION_TYPE": "U", "NORAD_CAT_ID": 66860, "ELEMENT_SET_NO": 999, "REV_AT_EPOCH": 213, "BSTAR": -0.010076956, "MEAN_MOTION_DOT": -0.01543883, "MEAN_MOTION_DDOT": 0}, "tle": {"line1": "1 66860U 25281N   25351.33339120 -.01543883  00000+0 -10077-1 0  9993", "line2": "2 66860  43.0006  94.0155 0001299 271.4246 243.0470 15.77945392  2130"}}, "geometry": {"type": "Point", "coordinates": [64.00525762946131, -23.2917453584156]}}, {"type": "Feature", "properties": {"norad_id": 66861, "name": "STARLINK-35991", "group": "last-30-days", "lat": -27.160316058129965, "lon": 58.128930765501295, "alt_km": 340.65342782724656, "timestamp": "2025-12-17T17:50:17.974486+00:00", "meta": {"OBJECT_NAME": "STARLINK-35991", "OBJECT_ID": "2025-281P", "EPOCH": "2025-12-17T06:00:00.999648", "MEAN_MOTION": 15.78489576, "ECCENTRICITY": 0.00015248, "INCLINATION": 43.0007, "RA_OF_ASC_NODE": 94.5404, "ARG_OF_PERICENTER": 270.692, "MEAN_ANOMALY": 122.2894, "EPHEMERIS_TYPE": 0, "CLASSIFICATION_TYPE": "U", "NORAD_CAT_ID": 66861, "ELEMENT_SET_NO": 999, "REV_AT_EPOCH": 212, "BSTAR": -0.0087176467, "MEAN_MOTION_DOT": -0.01388785, "MEAN_MOTION_DDOT": 0}, "tle": {"line1": "1 66861U 25281P   25351.25001157 -.01388785  00000+0 -87176-2 0  9994", "line2": "2 66861  43.0007  94.5404 0001524 270.6920 122.2894 15.78489576  2120"}}, "geometry": {"type": "Point", "coordinates": [58.128930765501295, -27.160316058129965]}}, {"type": "Feature", "properties": {"norad_id": 66862, "name": "STARLINK-35974", "group": "last-30-days", "lat": -28.394141242601048, "lon": 56.08349840212258, "alt_km": 340.28021896253176, "timestamp": "2025-12-17T17:50:17.974498+00:00", "meta": {"OBJECT_NAME": "STARLINK-35974", "OBJECT_ID": "2025-281Q", "EPOCH": "2025-12-17T06:00:00.999648", "MEAN_MOTION": 15.78568795, "ECCENTRICITY": 0.00017355, "INCLINATION": 43.0007, "RA_OF_ASC_NODE": 94.5463, "ARG_OF_PERICENTER": 273.1679, "MEAN_ANOMALY": 117.4618, "EPHEMERIS_TYPE": 0, "CLASSIFICATION_TYPE": "U", "NORAD_CAT_ID": 66862, "ELEMENT_SET_NO": 999, "REV_AT_EPOCH": 202, "BSTAR": -0.0085937094, "MEAN_MOTION_DOT": -0.01375745, "MEAN_MOTION_DDOT": 0}, "tle": {"line1": "1 66862U 25281Q   25351.25001157 -.01375745  00000+0 -85937-2 0  9990", "line2": "2 66862  43.0007  94.5463 0001735 273.1679 117.4618 15.78568795  2029"}}, "geometry": {"type": "Point", "coordinates": [56.08349840212258, -28.394141242601048]}}, {"type": "Feature", "properties": {"norad_id": 66863, "name": "STARLINK-36134", "group": "last-30-days", "lat": -25.81348420277142, "lon": 60.26053266234627, "alt_km": 341.2882441661204, "timestamp": "2025-12-17T17:50:17.974508+00:00", "meta": {"OBJECT_NAME": "STARLINK-36134", "OBJECT_ID": "2025-281R", "EPOCH": "2025-12-17T08:00:04.999680", "MEAN_MOTION": 15.78124408, "ECCENTRICITY": 0.00010903, "INCLINATION": 43.0009, "RA_OF_ASC_NODE": 94.027, "ARG_OF_PERICENTER": 277.847, "MEAN_ANOMALY": 232.0786, "EPHEMERIS_TYPE": 0, "CLASSIFICATION_TYPE": "U", "NORAD_CAT_ID": 66863, "ELEMENT_SET_NO": 999, "REV_AT_EPOCH": 213, "BSTAR": -0.0096441302, "MEAN_MOTION_DOT": -0.01496087, "MEAN_MOTION_DDOT": 0}, "tle": {"line1": "1 66863U 25281R   25351.33339120 -.01496087  00000+0 -96441-2 0  9999", "line2": "2 66863  43.0009  94.0270 0001090 277.8470 232.0786 15.78124408  2138"}}, "geometry": {"type": "Point", "coordinates": [60.26053266234627, -25.81348420277142]}}, {"type": "Feature", "properties": {"norad_id": 66864, "name": "STARLINK-36070", "group": "last-30-days", "lat": -24.565059446444234, "lon": 62.14896624352802, "alt_km": 341.35700258060933, "timestamp": "2025-12-17T17:50:17.974520+00:00", "meta": {"OBJECT_NAME": "STARLINK-36070", "OBJECT_ID": "2025-281S", "EPOCH": "2025-12-17T06:00:00.999648", "MEAN_MOTION": 15.7829391, "ECCENTRICITY": 0.00014647, "INCLINATION": 43.0008, "RA_OF_ASC_NODE": 94.5279, "ARG_OF_PERICENTER": 274.8004, "MEAN_ANOMALY": 123.0943, "EPHEMERIS_TYPE": 0, "CLASSIFICATION_TYPE": "U", "NORAD_CAT_ID": 66864, "ELEMENT_SET_NO": 999, "REV_AT_EPOCH": 215, "BSTAR": -0.0094703364, "MEAN_MOTION_DOT": -0.01482624, "MEAN_MOTION_DDOT": 0}, "tle": {"line1": "1 66864U 25281S   25351.25001157 -.01482624  00000+0 -94703-2 0  9998", "line2": "2 66864  43.0008  94.5279 0001464 274.8004 123.0943 15.78293910  2158"}}, "geometry": {"type": "Point", "coordinates": [62.14896624352802, -24.565059446444234]}}, {"type": "Feature", "properties": {"norad_id": 66865, "name": "STARLINK-36117", "group": "last-30-days", "lat": -21.98698271677851, "lon": 65.83738251822868, "alt_km": 341.95742833088025, "timestamp": "2025-12-17T17:50:17.974530+00:00", "meta": {"OBJECT_NAME": "STARLINK-36117", "OBJECT_ID": "2025-281T", "EPOCH": "2025-12-17T06:00:00.999648", "MEAN_MOTION": 15.78080817, "ECCENTRICITY": 0.00014963, "INCLINATION": 43.0009, "RA_OF_ASC_NODE": 94.5165, "ARG_OF_PERICENTER": 274.3716, "MEAN_ANOMALY": 128.2132, "EPHEMERIS_TYPE": 0, "CLASSIFICATION_TYPE": "U", "NORAD_CAT_ID": 66865, "ELEMENT_SET_NO": 999, "REV_AT_EPOCH": 212, "BSTAR": -0.0098603472, "MEAN_MOTION_DOT": -0.0152312, "MEAN_MOTION_DDOT": 0}, "tle": {"line1": "1 66865U 25281T   25351.25001157 -.01523120  00000+0 -98603-2 0  9999", "line2": "2 66865  43.0009  94.5165 0001496 274.3716 128.2132 15.78080817  2128"}}, "geometry": {"type": "Point", "coordinates": [65.83738251822868, -21.98698271677851]}}]}